[{"OBJECT_NAME":"ONEWEB-0704","OBJECT_ID":"2024-188R","EPOCH":"2025-10-29T11:16:31.158048","MEAN_MOTION":13.10370832,"ECCENTRICITY":0.0002482,"INCLINATION":87.8791,"RA_OF_ASC_NODE":82.2109,"ARG_OF_PERICENTER":84.8409,"MEAN_ANOMALY":275.3001,"EPHEMERIS_TYPE":0,"CLASSIFICATION_TYPE":"U","NORAD_CAT_ID":61609,"ELEMENT_SET_NO":999,"REV_AT_EPOCH":5307,"BSTAR":0.0011381,"MEAN_MOTION_DOT":4.1e-6,"MEAN_MOTION_DDOT":0},{"OBJECT_NAME":"ONEWEB-0705","OBJECT_ID":"2024-188S","EPOCH":"2025-10-29T09:33:43.526016","MEAN_MOTION":13.10372493,"ECCENTRICITY":0.0002225,"INCLINATION":87.8776,"RA_OF_ASC_NODE":82.2528,"ARG_OF_PERICENTER":64.2921,"MEAN_ANOMALY":295.8436,"EPHEMERIS_TYPE":0,"CLASSIFICATION_TYPE":"U","NORAD_CAT_ID":61610,"ELEMENT_SET_NO":999,"REV_AT_EPOCH":4523,"BSTAR":0.00090199,"MEAN_MOTION_DOT":3.28e-6,"MEAN_MOTION_DDOT":0},{"OBJECT_NAME":"ONEWEB-0706","OBJECT_ID":"2024-188T","EPOCH":"2025-10-29T11:02:10.971744","MEAN_MOTION":13.10372263,"ECCENTRICITY":0.0002077,"INCLINATION":87.8772,"RA_OF_ASC_NODE":82.2648,"ARG_OF_PERICENTER":81.8631,"MEAN_ANOMALY":278.2732,"EPHEMERIS_TYPE":0,"CLASSIFICATION_TYPE":"U","NORAD_CAT_ID":61611,"ELEMENT_SET_NO":999,"REV_AT_EPOCH":5316,"BSTAR":0.0018913,"MEAN_MOTION_DOT":6.73e-6,"MEAN_MOTION_DDOT":0},{"OBJECT_NAME":"ONEWEB-0707","OBJECT_ID":"2024-188U","EPOCH":"2025-10-29T11:11:44.531232","MEAN_MOTION":13.10370396,"ECCENTRICITY":0.0002103,"INCLINATION":87.8785,"RA_OF_ASC_NODE":82.2348,"ARG_OF_PERICENTER":85.3018,"MEAN_ANOMALY":274.835,"EPHEMERIS_TYPE":0,"CLASSIFICATION_TYPE":"U","NORAD_CAT_ID":61612,"ELEMENT_SET_NO":999,"REV_AT_EPOCH":5310,"BSTAR":0.0016958,"MEAN_MOTION_DOT":6.05e-6,"MEAN_MOTION_DDOT":0},{"OBJECT_NAME":"ONEWEB-0708","OBJECT_ID":"2024-188V","EPOCH":"2025-10-29T09:48:03.346848","MEAN_MOTION":13.10376027,"ECCENTRICITY":0.0001449,"INCLINATION":87.8773,"RA_OF_ASC_NODE":82.2875,"ARG_OF_PERICENTER":76.6003,"MEAN_ANOMALY":283.5285,"EPHEMERIS_TYPE":0,"CLASSIFICATION_TYPE":"U","NORAD_CAT_ID":61613,"ELEMENT_SET_NO":999,"REV_AT_EPOCH":5307,"BSTAR":-0.00064445,"MEAN_MOTION_DOT":-2.12e-6,"MEAN_MOTION_DDOT":0}]
