ONEWEB-0704             
1 61609U 24188R   25302.46980507  .00000410  00000+0  11381-2 0  9996
2 61609  87.8791  82.2109 0002482  84.8409 275.3001 13.10370832 53076
ONEWEB-0705             
1 61610U 24188S   25302.39842044  .00000328  00000+0  90199-3 0  9996
2 61610  87.8776  82.2528 0002225  64.2921 295.8436 13.10372493 45235
ONEWEB-0706             
1 61611U 24188T   25302.45984921  .00000673  00000+0  18913-2 0  9991
2 61611  87.8772  82.2648 0002077  81.8631 278.2732 13.10372263 53163
ONEWEB-0707             
1 61612U 24188U   25302.46648763  .00000605  00000+0  16958-2 0  9996
2 61612  87.8785  82.2348 0002103  85.3018 274.8350 13.10370396 53100
ONEWEB-0708             
1 61613U 24188V   25302.40837207 -.00000212  00000+0 -64445-3 0  9995
2 61613  87.8773  82.2875 0001449  76.6003 283.5285 13.10376027 53079
